{
  "type": "FeatureCollection",
  "features": [
    {
      "type": "Feature",
      "properties": {
        "norad_id": 34722,
        "name": "COSMOS 2251 DEB",
        "group": "cosmos-2251-debris",
        "lat": -41.07116778943712,
        "lon": -36.61295821539388,
        "alt_km": 785.2727768316327,
        "timestamp": "2025-12-11T15:53:39.938833+00:00",
        "meta_object_name": "COSMOS 2251 DEB",
        "meta_object_id": "1993-036YQ",
        "meta_epoch": "2025-12-10T23:13:55.059168",
        "meta_mean_motion": 14.11925435,
        "meta_eccentricity": 0.0167221,
        "meta_inclination": 73.8737,
        "meta_ra_of_asc_node": 339.2282,
        "meta_arg_of_pericenter": 265.0827,
        "meta_mean_anomaly": 122.7739,
        "meta_ephemeris_type": 0,
        "meta_classification_type": "U",
        "meta_norad_cat_id": 34722,
        "meta_element_set_no": 999,
        "meta_rev_at_epoch": 86220,
        "meta_bstar": 0.0012298,
        "meta_mean_motion_dot": 2.538e-05,
        "meta_mean_motion_ddot": 0,
        "tle_line1": "1 34722U 93036YQ  25344.96799837  .00002538  00000+0  12298-2 0  9996",
        "tle_line2": "2 34722  73.8737 339.2282 0167221 265.0827 122.7739 14.11925435862207"
      },
      "geometry": {
        "type": "Point",
        "coordinates": [
          -36.61295821539388,
          -41.07116778943712
        ]
      }
    },
    {
      "type": "Feature",
      "properties": {
        "norad_id": 34726,
        "name": "COSMOS 2251 DEB",
        "group": "cosmos-2251-debris",
        "lat": 19.550369815348166,
        "lon": 162.54279493323813,
        "alt_km": 666.6690047670827,
        "timestamp": "2025-12-11T15:53:39.938843+00:00",
        "meta_object_name": "COSMOS 2251 DEB",
        "meta_object_id": "1993-036YU",
        "meta_epoch": "2025-12-11T00:21:43.820064",
        "meta_mean_motion": 14.59471055,
        "meta_eccentricity": 0.00420629,
        "meta_inclination": 74.0292,
        "meta_ra_of_asc_node": 349.6136,
        "meta_arg_of_pericenter": 141.0021,
        "meta_mean_anomaly": 219.4191,
        "meta_ephemeris_type": 0,
        "meta_classification_type": "U",
        "meta_norad_cat_id": 34726,
        "meta_element_set_no": 999,
        "meta_rev_at_epoch": 88477,
        "meta_bstar": 0.00059341044,
        "meta_mean_motion_dot": 2.821e-05,
        "meta_mean_motion_ddot": 0,
        "tle_line1": "1 34726U 93036YU  25345.01509051  .00002821  00000+0  59341-3 0  9990",
        "tle_line2": "2 34726  74.0292 349.6136 0042062 141.0021 219.4191 14.59471055884775"
      },
      "geometry": {
        "type": "Point",
        "coordinates": [
          162.54279493323813,
          19.550369815348166
        ]
      }
    },
    {
      "type": "Feature",
      "properties": {
        "norad_id": 34728,
        "name": "COSMOS 2251 DEB",
        "group": "cosmos-2251-debris",
        "lat": -6.898440640269405,
        "lon": -108.12344593265726,
        "alt_km": 646.9064045654932,
        "timestamp": "2025-12-11T15:53:39.938854+00:00",
        "meta_object_name": "COSMOS 2251 DEB",
        "meta_object_id": "1993-036YW",
        "meta_epoch": "2025-12-11T04:29:59.772768",
        "meta_mean_motion": 14.70820448,
        "meta_eccentricity": 0.00410287,
        "meta_inclination": 74.0167,
        "meta_ra_of_asc_node": 254.7862,
        "meta_arg_of_pericenter": 52.8225,
        "meta_mean_anomaly": 307.668,
        "meta_ephemeris_type": 0,
        "meta_classification_type": "U",
        "meta_norad_cat_id": 34728,
        "meta_element_set_no": 999,
        "meta_rev_at_epoch": 88777,
        "meta_bstar": 0.0012296357,
        "meta_mean_motion_dot": 7.588e-05,
        "meta_mean_motion_ddot": 0,
        "tle_line1": "1 34728U 93036YW  25345.18749737  .00007588  00000+0  12296-2 0  9999",
        "tle_line2": "2 34728  74.0167 254.7862 0041028  52.8225 307.6680 14.70820448887779"
      },
      "geometry": {
        "type": "Point",
        "coordinates": [
          -108.12344593265726,
          -6.898440640269405
        ]
      }
    },
    {
      "type": "Feature",
      "properties": {
        "norad_id": 34729,
        "name": "COSMOS 2251 DEB",
        "group": "cosmos-2251-debris",
        "lat": -37.67532313795994,
        "lon": -12.221254841218537,
        "alt_km": 634.4917905898401,
        "timestamp": "2025-12-11T15:53:39.938864+00:00",
        "meta_object_name": "COSMOS 2251 DEB",
        "meta_object_id": "1993-036YX",
        "meta_epoch": "2025-12-11T05:18:38.648160",
        "meta_mean_motion": 14.8273065,
        "meta_eccentricity": 0.00118532,
        "meta_inclination": 74.0184,
        "meta_ra_of_asc_node": 1.4374,
        "meta_arg_of_pericenter": 121.4211,
        "meta_mean_anomaly": 6.296,
        "meta_ephemeris_type": 0,
        "meta_classification_type": "U",
        "meta_norad_cat_id": 34729,
        "meta_element_set_no": 999,
        "meta_rev_at_epoch": 88435,
        "meta_bstar": 0.0035251235,
        "meta_mean_motion_dot": 0.0002859,
        "meta_mean_motion_ddot": 0,
        "tle_line1": "1 34729U 93036YX  25345.22128065  .00028590  00000+0  35251-2 0  9992",
        "tle_line2": "2 34729  74.0184   1.4374 0011853 121.4211   6.2960 14.82730650884357"
      },
      "geometry": {
        "type": "Point",
        "coordinates": [
          -12.221254841218537,
          -37.67532313795994
        ]
      }
    },
    {
      "type": "Feature",
      "properties": {
        "norad_id": 34732,
        "name": "COSMOS 2251 DEB",
        "group": "cosmos-2251-debris",
        "lat": -33.94180116127268,
        "lon": 84.09895759072252,
        "alt_km": 734.3612449955453,
        "timestamp": "2025-12-11T15:53:39.938875+00:00",
        "meta_object_name": "COSMOS 2251 DEB",
        "meta_object_id": "1993-036ZA",
        "meta_epoch": "2025-12-10T07:00:38.330784",
        "meta_mean_motion": 14.47296381,
        "meta_eccentricity": 0.0040439,
        "meta_inclination": 74.0451,
        "meta_ra_of_asc_node": 97.7594,
        "meta_arg_of_pericenter": 249.2333,
        "meta_mean_anomaly": 138.9201,
        "meta_ephemeris_type": 0,
        "meta_classification_type": "U",
        "meta_norad_cat_id": 34732,
        "meta_element_set_no": 999,
        "meta_rev_at_epoch": 88108,
        "meta_bstar": 0.00026368,
        "meta_mean_motion_dot": 9.47e-06,
        "meta_mean_motion_ddot": 0,
        "tle_line1": "1 34732U 93036ZA  25344.29211031  .00000947  00000+0  26368-3 0  9994",
        "tle_line2": "2 34732  74.0451  97.7594 0040439 249.2333 138.9201 14.47296381881083"
      },
      "geometry": {
        "type": "Point",
        "coordinates": [
          84.09895759072252,
          -33.94180116127268
        ]
      }
    },
    {
      "type": "Feature",
      "properties": {
        "norad_id": 34736,
        "name": "COSMOS 2251 DEB",
        "group": "cosmos-2251-debris",
        "lat": 59.97234449817393,
        "lon": 68.34950752638534,
        "alt_km": 418.0769082885572,
        "timestamp": "2025-12-11T15:53:39.938885+00:00",
        "meta_object_name": "COSMOS 2251 DEB",
        "meta_object_id": "1993-036ZE",
        "meta_epoch": "2025-12-11T04:44:55.142016",
        "meta_mean_motion": 15.46033279,
        "meta_eccentricity": 0.00172787,
        "meta_inclination": 74.0018,
        "meta_ra_of_asc_node": 39.6022,
        "meta_arg_of_pericenter": 348.9519,
        "meta_mean_anomaly": 11.1309,
        "meta_ephemeris_type": 0,
        "meta_classification_type": "U",
        "meta_norad_cat_id": 34736,
        "meta_element_set_no": 999,
        "meta_rev_at_epoch": 88424,
        "meta_bstar": 0.010625447,
        "meta_mean_motion_dot": 0.00560383,
        "meta_mean_motion_ddot": 0,
        "tle_line1": "1 34736U 93036ZE  25345.19786044  .00560383  00000+0  10625-1 0  9991",
        "tle_line2": "2 34736  74.0018  39.6022 0017278 348.9519  11.1309 15.46033279884242"
      },
      "geometry": {
        "type": "Point",
        "coordinates": [
          68.34950752638534,
          59.97234449817393
        ]
      }
    },
    {
      "type": "Feature",
      "properties": {
        "norad_id": 34738,
        "name": "COSMOS 2251 DEB",
        "group": "cosmos-2251-debris",
        "lat": 0.6358427134635088,
        "lon": 145.4622594851675,
        "alt_km": 728.1180756735312,
        "timestamp": "2025-12-11T15:53:39.938896+00:00",
        "meta_object_name": "COSMOS 2251 DEB",
        "meta_object_id": "1993-036ZG",
        "meta_epoch": "2025-12-11T06:13:18.837120",
        "meta_mean_motion": 14.46297499,
        "meta_eccentricity": 0.00473486,
        "meta_inclination": 74.0142,
        "meta_ra_of_asc_node": 146.033,
        "meta_arg_of_pericenter": 292.5685,
        "meta_mean_anomaly": 130.1491,
        "meta_ephemeris_type": 0,
        "meta_classification_type": "U",
        "meta_norad_cat_id": 34738,
        "meta_element_set_no": 999,
        "meta_rev_at_epoch": 87837,
        "meta_bstar": 0.00053650388,
        "meta_mean_motion_dot": 1.922e-05,
        "meta_mean_motion_ddot": 0,
        "tle_line1": "1 34738U 93036ZG  25345.25924580  .00001922  00000+0  53650-3 0  9995",
        "tle_line2": "2 34738  74.0142 146.0330 0047348 292.5685 130.1491 14.46297499878372"
      },
      "geometry": {
        "type": "Point",
        "coordinates": [
          145.4622594851675,
          0.6358427134635088
        ]
      }
    }
  ]
}